      2.10          N: GNSS NAV DATA                        RINEX VERSION / TYPE
fic2rin                                 09/26/2018 00:20:35 PGM / RUN BY / DATE
                                                            END OF HEADER
31 18  9 25 20  0  0.0 9.108567610383e-05-2.614797267597e-12 0.000000000000e+00
    4.000000000000e+01 3.931250000000e+01 4.951991984629e-09-2.120826476707e+00
    2.034008502960e-06 8.895884617232e-03 3.347173333168e-06 5.153741226196e+03
    2.448000000000e+05-6.519258022308e-08-1.711928665500e+00-1.061707735062e-07
    9.617592503446e-01 3.183125000000e+02-1.082141539996e-01-8.453209252953e-09
    2.121516941125e-10 1.000000000000e+00 2.020000000000e+03 0.000000000000e+00
    2.400000000000e+00 0.000000000000e+00-1.350417733192e-08 4.000000000000e+01
    2.376060000000e+05 4.000000000000e+00
20 18  9 25 20  0  0.0 5.163573659956e-04 5.684341886081e-13 0.000000000000e+00
    3.200000000000e+01-7.687500000000e+01 5.528444567621e-09-1.394876271613e+00
   -3.937631845474e-06 4.310221993364e-03 6.359070539474e-06 5.153673334122e+03
    2.448000000000e+05-1.285225152969e-07 2.334591103467e+00-3.352761268616e-08
    9.290836949909e-01 2.434375000000e+02 2.112456250476e+00-8.682504518307e-09
   -3.918020344131e-10 1.000000000000e+00 2.020000000000e+03 0.000000000000e+00
    2.400000000000e+00 0.000000000000e+00-8.381903171539e-09 3.200000000000e+01
    2.376060000000e+05 4.000000000000e+00
22 18  9 25 20  0  0.0-5.294606089592e-04-1.068656274583e-11 0.000000000000e+00
    7.800000000000e+01-8.621875000000e+01 5.719166797682e-09 1.768264060781e-01
   -4.451721906662e-06 7.058178656735e-03 6.822869181633e-06 5.153704240799e+03
    2.448000000000e+05-4.656612873077e-08 2.384087346487e+00 9.313225746155e-09
    9.258630574327e-01 2.320937500000e+02-1.481512281539e+00-8.873226748368e-09
   -4.535903224290e-10 1.000000000000e+00 2.020000000000e+03 0.000000000000e+00
    2.400000000000e+00 0.000000000000e+00-1.816079020500e-08 7.800000000000e+01
    2.376060000000e+05 4.000000000000e+00
23 18  9 25 20  0  0.0-2.100905403495e-04 7.958078640513e-13 0.000000000000e+00
    9.300000000000e+01 4.503125000000e+01 4.756983861758e-09-4.504833920072e-01
    2.305954694748e-06 1.263837271836e-02 1.243688166142e-05 5.153736421585e+03
    2.448000000000e+05-2.235174179077e-08-2.805067207931e+00 1.899898052216e-07
    9.439106198832e-01 1.303437500000e+02-2.327106283535e+00-8.319989418098e-09
    1.075044779930e-10 1.000000000000e+00 2.020000000000e+03 0.000000000000e+00
    2.400000000000e+00 0.000000000000e+00-2.002343535423e-08 9.300000000000e+01
    2.376060000000e+05 4.000000000000e+00
21 18  9 25 20  0  0.0-3.313124179840e-04 6.025402399246e-12 0.000000000000e+00
    7.300000000000e+01 6.021875000000e+01 5.175572726235e-09-3.022832620129e+00
    2.870336174965e-06 2.435999014415e-02 3.166496753693e-06 5.153619514465e+03
    2.448000000000e+05 4.302710294724e-07 1.347302295634e+00 1.434236764908e-07
    9.449785954316e-01 3.054062500000e+02-1.524820266976e+00-8.225699776270e-09
    4.203746531488e-10 1.000000000000e+00 2.020000000000e+03 0.000000000000e+00
    2.400000000000e+00 0.000000000000e+00-1.024454832077e-08 7.300000000000e+01
    2.376060000000e+05 4.000000000000e+00
19 18  9 25 20  0  0.0-3.993655554950e-04 3.524291969370e-12 0.000000000000e+00
    8.400000000000e+01 4.715625000000e+01 3.715869066576e-09-2.599429528514e+00
    2.305954694748e-06 9.633619803935e-03 1.237168908119e-05 5.153609729767e+03
    2.448000000000e+05 1.396983861923e-07 4.503763546801e-01 1.862645149231e-09
    9.811514393186e-01 1.460312500000e+02 1.290605582994e+00-7.502812522257e-09
    4.585905307078e-10 1.000000000000e+00 2.020000000000e+03 0.000000000000e+00
    2.400000000000e+00 0.000000000000e+00-1.536682248116e-08 8.400000000000e+01
    2.376060000000e+05 4.000000000000e+00
18 18  9 25 20  0  0.0 6.131408736110e-05 4.206412995700e-12 0.000000000000e+00
    4.800000000000e+01 5.368750000000e+01 5.208788395516e-09-1.488401162774e+00
    3.216788172722e-06 1.498552446719e-02 3.371387720108e-06 5.153622514725e+03
    2.448000000000e+05 2.030283212662e-07 1.355088659556e+00 2.887099981308e-07
    9.507003342907e-01 3.094687500000e+02 1.351971835054e+00-8.585357614605e-09
    4.139458139333e-10 1.000000000000e+00 2.020000000000e+03 0.000000000000e+00
    2.400000000000e+00 0.000000000000e+00-6.519258022308e-09 4.800000000000e+01
    2.376060000000e+05 4.000000000000e+00
29 18  9 25 20  0  0.0 3.693886101246e-04-7.389644451905e-12 0.000000000000e+00
    6.600000000000e+01 3.984375000000e+01 3.623365213419e-09 1.494374810275e+00
    2.121552824974e-06 7.779962616041e-04 1.163594424725e-05 5.153631772995e+03
    2.448000000000e+05 1.303851604462e-08 4.144328568491e-01-2.607703208923e-08
    9.848952149190e-01 1.671875000000e+02 1.626633368792e+00-7.606031107440e-09
    3.528718413857e-10 1.000000000000e+00 2.020000000000e+03 0.000000000000e+00
    2.400000000000e+00 0.000000000000e+00-1.024454832077e-08 6.600000000000e+01
    2.376060000000e+05 4.000000000000e+00
24 18  9 25 20  0  0.0-5.587423220277e-05-5.684341886081e-13 0.000000000000e+00
    1.690000000000e+02 5.168750000000e+01 5.350580015992e-09-8.905391961092e-01
    2.633780241013e-06 7.287178887054e-03 3.661960363388e-06 5.153623132706e+03
    2.448000000000e+05 1.713633537292e-07-1.786812908204e+00 6.519258022308e-08
    9.402795811387e-01 2.987500000000e+02 5.356767833053e-01-8.688576199788e-09
    1.560779298437e-10 1.000000000000e+00 2.020000000000e+03 0.000000000000e+00
    2.400000000000e+00 0.000000000000e+00 2.793967723846e-09 1.690000000000e+02
    2.376060000000e+05 4.000000000000e+00
22 18  9 25 19 59 44.0-5.294601432979e-04-1.068656274583e-11 0.000000000000e+00
    4.400000000000e+01-8.621875000000e+01 5.719166797682e-09 1.744926084775e-01
   -4.451721906662e-06 7.058182032779e-03 6.821006536484e-06 5.153704246521e+03
    2.447840000000e+05-4.656612873077e-08 2.384087497168e+00 9.313225746155e-09
    9.258630559698e-01 2.320937500000e+02-1.481512249355e+00-8.873226748368e-09
   -4.532331646948e-10 1.000000000000e+00 2.020000000000e+03 0.000000000000e+00
    2.400000000000e+00 0.000000000000e+00-1.816079020500e-08 4.400000000000e+01
    2.392560000000e+05 4.000000000000e+00
 2 18  9 25 19 59 44.0-1.216446980834e-05-1.091393642128e-11 0.000000000000e+00
    3.300000000000e+01 5.593750000000e+01 5.293077620786e-09-9.547401255128e-01
    3.350898623466e-06 1.817895891145e-02 4.461035132408e-06 5.153555749893e+03
    2.447840000000e+05-1.788139343262e-07 1.341238805946e+00 3.688037395477e-07
    9.513581997734e-01 2.934687500000e+02-1.827974190097e+00-8.776079844666e-09
    4.168030758068e-10 1.000000000000e+00 2.020000000000e+03 0.000000000000e+00
    2.400000000000e+00 0.000000000000e+00-2.048909664154e-08 3.300000000000e+01
    2.427960000000e+05 4.000000000000e+00
15 18  9 25 19 59 44.0-3.448906354606e-04 1.023181539495e-12 0.000000000000e+00
    3.000000000000e+00 1.928125000000e+01 5.188430404667e-09 1.099652113496e-02
    1.152977347374e-06 1.075210201088e-02 1.164525747299e-05 5.153571889877e+03
    2.447840000000e+05 2.048909664154e-08-2.876049576015e+00 1.229345798492e-07
    9.286521736563e-01 1.359687500000e+02 7.062727602611e-01-8.449994833345e-09
    1.178620522847e-11 1.000000000000e+00 2.020000000000e+03 0.000000000000e+00
    2.400000000000e+00 0.000000000000e+00-1.071020960808e-08 3.000000000000e+00
    2.434560000000e+05 4.000000000000e+00
 8 18  9 25 19 59 44.0-1.163785345852e-04-1.250555214938e-12 0.000000000000e+00
    4.000000000000e+00 3.921875000000e+01 3.908377085308e-09 1.305585947512e+00
    2.045184373856e-06 3.563815844245e-03 1.278147101402e-05 5.153637723923e+03
    2.447840000000e+05 6.891787052155e-08 3.395317686439e-01 8.009374141693e-08
    9.700109685075e-01 1.370000000000e+02-4.085084189868e-01-7.717821478243e-09
    2.667968274445e-10 1.000000000000e+00 2.020000000000e+03 0.000000000000e+00
    2.400000000000e+00 0.000000000000e+00 5.122274160385e-09 4.000000000000e+00
    2.444160000000e+05 4.000000000000e+00
 2 18  9 25 21 59 44.0-1.224363222718e-05-1.091393642128e-11 0.000000000000e+00
    3.400000000000e+01 5.493750000000e+01 5.214860076997e-09 9.550522434737e-02
    2.754852175713e-06 1.817901374307e-02 4.557892680168e-06 5.153555652618e+03
    2.519840000000e+05-2.980232238770e-07 1.341174771095e+00 1.098960638046e-07
    9.513610539266e-01 2.900625000000e+02-1.827960615680e+00-8.874655379304e-09
    4.071598169835e-10 1.000000000000e+00 2.020000000000e+03 0.000000000000e+00
    2.400000000000e+00 0.000000000000e+00-2.048909664154e-08 3.400000000000e+01
    2.448060000000e+05 4.000000000000e+00
 8 18  9 25 21 59 44.0-1.163873821497e-04-1.250555214938e-12 0.000000000000e+00
    5.000000000000e+00 3.587500000000e+01 3.951950328880e-09 2.356276432623e+00
    1.857057213783e-06 3.564314218238e-03 1.215934753418e-05 5.153634298325e+03
    2.519840000000e+05-3.725290298462e-09 3.394767453691e-01 1.117587089539e-08
    9.700126099016e-01 1.496250000000e+02-4.089995088827e-01-7.693177594584e-09
    1.882221259213e-10 1.000000000000e+00 2.020000000000e+03 0.000000000000e+00
    2.400000000000e+00 0.000000000000e+00 5.122274160385e-09 5.000000000000e+00
    2.448060000000e+05 4.000000000000e+00
15 18  9 25 21 59 44.0-3.448831848800e-04 1.023181539495e-12 0.000000000000e+00
    4.000000000000e+00 2.246875000000e+01 5.147357265234e-09 1.061042216324e+00
    1.514330506325e-06 1.075422076974e-02 1.300871372223e-05 5.153577508926e+03
    2.519840000000e+05-5.401670932770e-08-2.876110126194e+00 1.396983861923e-07
    9.286521458608e-01 1.127812500000e+02 7.064740768067e-01-8.421422214609e-09
   -1.428630936784e-11 1.000000000000e+00 2.020000000000e+03 0.000000000000e+00
    2.400000000000e+00 0.000000000000e+00-1.071020960808e-08 4.000000000000e+00
    2.448060000000e+05 4.000000000000e+00
